STARLINK-2022           
1 47643U 21012Z   23334.81895276  .00001007  00000+0  86482-4 0  9990
2 47643  53.0537 177.0491 0001460 125.6882 234.4243 15.06401265154665
